EUTELSAT 7A             
1 28187U 04008A   25281.60794497  .00000107  00000+0  00000+0 0  9998
2 28187   5.1872  74.9930 0001459 164.0624 218.1408  1.00274468 78837
EUTELSAT 174A           
1 28924U 05052A   25281.74112206  .00000013  00000+0  00000+0 0  9990
2 28924   3.5780  79.6276 0006394 121.7408 257.0699  1.00271613 49813
EUTELSAT HOTBIRD 13B    
1 29270U 06032A   25281.78462891  .00000158  00000+0  00000+0 0  9996
2 29270   1.0069  84.9482 0003886 109.6279 138.6520  1.00272275 44786
EUTELSAT HOTBIRD 13C    
1 33459U 08065A   25281.77552888 -.00000097  00000+0  00000+0 0  9996
2 33459   2.2991  82.1482 0005643 139.0959  63.1241  1.00271361 44824
EUTELSAT 36B            
1 36101U 09065A   25281.78800894  .00000113  00000+0  00000+0 0  9996
2 36101   0.0640   3.3409 0006158 201.3865 147.1463  1.00273643 58181
EUTELSAT KA-SAT 9A      
1 37258U 10069A   25281.28044293  .00000064  00000+0  00000+0 0  9999
2 37258   0.0590 321.1802 0002707 206.6059 319.3706  1.00270171 41487
EUTELSAT 7 WEST A       
1 37816U 11051A   25281.77656889 -.00000059  00000+0  00000+0 0  9990
2 37816   0.0687  21.8672 0006564 176.9040  91.1590  1.00271490 51366
EUTELSAT 16A            
1 37836U 11057A   25281.78124890  .00000106  00000+0  00000+0 0  9993
2 37836   0.0656 352.4569 0005393 208.4200 114.0636  1.00274137  4804
